CTC1_L_00603007-03
1 10062U 24066DP  26075.70039352  .00000000  00000+0  00000-0 0  9995
2 10062  50.0000 180.0000 0000000   0.0000 144.0000  5.31014043    16
CTC1_L_00603007-04
1 10063U 22123DU  26075.70039352  .00000000  00000+0  00000-0 0  9998
2 10063  50.0000 180.0000 0000000   0.0000 180.0000  5.31014043    17
CTC1_L_00603007-05
1 10064U 23258HC  26075.70039352  .00000000  00000+0  00000-0 0  9999
2 10064  50.0000 180.0000 0000000   0.0000 216.0000  5.31014043    18
CTC1_L_00603007-06
1 10065U 26015VZ  26075.70039352  .00000000  00000+0  00000-0 0  9994
2 10065  50.0000 180.0000 0000000   0.0000 252.0000  5.31014043    19
CTC1_L_00603007-07
1 10066U 22968KU  26075.70039352  .00000000  00000+0  00000-0 0  9998
2 10066  50.0000 180.0000 0000000   0.0000 288.0000  5.31014043    19
CTC1_L_00603007-08
1 10067U 26907KZ  26075.70039352  .00000000  00000+0  00000-0 0  9996
2 10067  50.0000 180.0000 0000000   0.0000 324.0000  5.31014043    11
CTC1_L_00603007-09
1 10068U 24500BD  26075.70039352  .00000000  00000+0  00000-0 0  9994
2 10068  50.0000 180.0000 0000000   0.0000   0.0000  5.31014043    13
CTC1_L_00603007-10
1 10069U 22207CI  26075.70039352  .00000000  00000+0  00000-0 0  9997
2 10069  50.0000 180.0000 0000000   0.0000  36.0000  5.31014043    13
CTC1_L_00603008-01
1 10070U 26614NO  26075.70039352  .00000000  00000+0  00000-0 0  9995
2 10070  50.0000 210.0000 0000000   0.0000  84.0000  5.31014043    12
CTC1_L_00603008-02
1 10071U 22623WA  26075.70039352  .00000000  00000+0  00000-0 0  9992
2 10071  50.0000 210.0000 0000000   0.0000 120.0000  5.31014043    14
CTC1_L_00603008-03
1 10072U 23063SV  26075.70039352  .00000000  00000+0  00000-0 0  9992
2 10072  50.0000 210.0000 0000000   0.0000 156.0000  5.31014043    14
CTC1_L_00603008-04
1 10073U 22476HF  26075.70039352  .00000000  00000+0  00000-0 0  9990
2 10073  50.0000 210.0000 0000000   0.0000 192.0000  5.31014043    15
CTC1_L_00603008-05
1 10074U 23481TG  26075.70039352  .00000000  00000+0  00000-0 0  9998
2 10074  50.0000 210.0000 0000000   0.0000 228.0000  5.31014043    16
CTC1_L_00603008-06
1 10075U 25536GO  26075.70039352  .00000000  00000+0  00000-0 0  9992
2 10075  50.0000 210.0000 0000000   0.0000 264.0000  5.31014043    17
CTC1_L_00603008-07
1 10076U 25562LO  26075.70039352  .00000000  00000+0  00000-0 0  9992
2 10076  50.0000 210.0000 0000000   0.0000 300.0000  5.31014043    19
CTC1_L_00603008-08
1 10077U 26331EJ  26075.70039352  .00000000  00000+0  00000-0 0  9998
2 10077  50.0000 210.0000 0000000   0.0000 336.0000  5.31014043    19
CTC1_L_00603008-09
1 10078U 26050SG  26075.70039352  .00000000  00000+0  00000-0 0  9997
2 10078  50.0000 210.0000 0000000   0.0000  12.0000  5.31014043    11
CTC1_L_00603008-10
1 10079U 22919JW  26075.70039352  .00000000  00000+0  00000-0 0  9998
2 10079  50.0000 210.0000 0000000   0.0000  48.0000  5.31014043    11
CTC1_L_00603009-01
1 10080U 25169EU  26075.70039352  .00000000  00000+0  00000-0 0  9990
2 10080  50.0000 240.0000 0000000   0.0000  96.0000  5.31014043    19
CTC1_L_00603009-02
1 10081U 22486AZ  26075.70039352  .00000000  00000+0  00000-0 0  9990
2 10081  50.0000 240.0000 0000000   0.0000 132.0000  5.31014043    11
CTC1_L_00603009-03
1 10082U 23270UR  26075.70039352  .00000000  00000+0  00000-0 0  9993
2 10082  50.0000 240.0000 0000000   0.0000 168.0000  5.31014043    11
CTC1_L_00603009-04
1 10083U 24410SK  26075.70039352  .00000000  00000+0  00000-0 0  9991
2 10083  50.0000 240.0000 0000000   0.0000 204.0000  5.31014043    13
CTC1_L_00603009-05
1 10084U 25807GV  26075.70039352  .00000000  00000+0  00000-0 0  9993
2 10084  50.0000 240.0000 0000000   0.0000 240.0000  5.31014043    14
CTC1_L_00603009-06
1 10085U 23059UT  26075.70039352  .00000000  00000+0  00000-0 0  9991
2 10085  50.0000 240.0000 0000000   0.0000 276.0000  5.31014043    14
CTC1_L_00603009-07
1 10086U 22105RP  26075.70039352  .00000000  00000+0  00000-0 0  9993
2 10086  50.0000 240.0000 0000000   0.0000 312.0000  5.31014043    16
CTC1_L_00603009-08
1 10087U 24828QU  26075.70039352  .00000000  00000+0  00000-0 0  9998
2 10087  50.0000 240.0000 0000000   0.0000 348.0000  5.31014043    16
CTC1_L_00603009-09
1 10088U 26019WF  26075.70039352  .00000000  00000+0  00000-0 0  9993
2 10088  50.0000 240.0000 0000000   0.0000  24.0000  5.31014043    18
CTC1_L_00603009-10
1 10089U 23381UK  26075.70039352  .00000000  00000+0  00000-0 0  9993
2 10089  50.0000 240.0000 0000000   0.0000  60.0000  5.31014043    19
CTC1_L_00603010-01
1 10090U 26961ZV  26075.70039352  .00000000  00000+0  00000-0 0  9992
2 10090  50.0000 270.0000 0000000   0.0000 108.0000  5.31014043    17
CTC1_L_00603010-02
1 10091U 22572YV  26075.70039352  .00000000  00000+0  00000-0 0  9997
2 10091  50.0000 270.0000 0000000   0.0000 144.0000  5.31014043    18
CTC1_L_00603010-03
1 10092U 22946IR  26075.70039352  .00000000  00000+0  00000-0 0  9993
2 10092  50.0000 270.0000 0000000   0.0000 180.0000  5.31014043    19
CTC1_L_00603010-04
1 10093U 26877IL  26075.70039352  .00000000  00000+0  00000-0 0  9991
2 10093  50.0000 270.0000 0000000   0.0000 216.0000  5.31014043    10
CTC1_L_00603010-05
1 10094U 26072IY  26075.70039352  .00000000  00000+0  00000-0 0  9999
2 10094  50.0000 270.0000 0000000   0.0000 252.0000  5.31014043    11
CTC1_L_00603010-06
1 10095U 22730XW  26075.70039352  .00000000  00000+0  00000-0 0  9997
2 10095  50.0000 270.0000 0000000   0.0000 288.0000  5.31014043    11
CTC1_L_00603010-07
1 10096U 22920JZ  26075.70039352  .00000000  00000+0  00000-0 0  9999
2 10096  50.0000 270.0000 0000000   0.0000 324.0000  5.31014043    13
CTC1_L_00603010-08
1 10097U 25071SS  26075.70039352  .00000000  00000+0  00000-0 0  9990
2 10097  50.0000 270.0000 0000000   0.0000   0.0000  5.31014043    15
CTC1_L_00603010-09
1 10098U 23291KT  26075.70039352  .00000000  00000+0  00000-0 0  9993
2 10098  50.0000 270.0000 0000000   0.0000  36.0000  5.31014043    15
CTC1_L_00603010-10
1 10099U 25631RN  26075.70039352  .00000000  00000+0  00000-0 0  9994
2 10099  50.0000 270.0000 0000000   0.0000  72.0000  5.31014043    16
CTC1_L_00603011-01
1 10100U 24456UI  26075.70039352  .00000000  00000+0  00000-0 0  9991
2 10100  50.0000 300.0000 0000000   0.0000 120.0000  5.31014043    17
CTC1_L_00603011-02
1 10101U 23443ET  26075.70039352  .00000000  00000+0  00000-0 0  9997
2 10101  50.0000 300.0000 0000000   0.0000 156.0000  5.31014043    17
CTC1_L_00603011-03
1 10102U 25331UK  26075.70039352  .00000000  00000+0  00000-0 0  9996
2 10102  50.0000 300.0000 0000000   0.0000 192.0000  5.31014043    18
CTC1_L_00603011-04
1 10103U 24802QY  26075.70039352  .00000000  00000+0  00000-0 0  9999
2 10103  50.0000 300.0000 0000000   0.0000 228.0000  5.31014043    19
CTC1_L_00603011-05
1 10104U 25598EC  26075.70039352  .00000000  00000+0  00000-0 0  9993
2 10104  50.0000 300.0000 0000000   0.0000 264.0000  5.31014043    10
CTC1_L_00603011-06
1 10105U 26172ND  26075.70039352  .00000000  00000+0  00000-0 0  9993
2 10105  50.0000 300.0000 0000000   0.0000 300.0000  5.31014043    12
CTC1_L_00603011-07
1 10106U 24282PM  26075.70039352  .00000000  00000+0  00000-0 0  9994
2 10106  50.0000 300.0000 0000000   0.0000 336.0000  5.31014043    12
CTC1_L_00603011-08
1 10107U 22126EW  26075.70039352  .00000000  00000+0  00000-0 0  9990
2 10107  50.0000 300.0000 0000000   0.0000  12.0000  5.31014043    14
CTC1_L_00603011-09
1 10108U 24033UN  26075.70039352  .00000000  00000+0  00000-0 0  9990
2 10108  50.0000 300.0000 0000000   0.0000  48.0000  5.31014043    14
CTC1_L_00603011-10
1 10109U 22620PM  26075.70039352  .00000000  00000+0  00000-0 0  9991
2 10109  50.0000 300.0000 0000000   0.0000  84.0000  5.31014043    15
CTC1_L_00603012-01
1 10110U 26069WL  26075.70039352  .00000000  00000+0  00000-0 0  9994
2 10110  50.0000 330.0000 0000000   0.0000 132.0000  5.31014043    14
CTC1_L_00603012-02
1 10111U 24276RZ  26075.70039352  .00000000  00000+0  00000-0 0  9993
2 10111  50.0000 330.0000 0000000   0.0000 168.0000  5.31014043    14
CTC1_L_00603012-03
1 10112U 26772UU  26075.70039352  .00000000  00000+0  00000-0 0  9997
2 10112  50.0000 330.0000 0000000   0.0000 204.0000  5.31014043    16
CTC1_L_00603012-04
1 10113U 25741PH  26075.70039352  .00000000  00000+0  00000-0 0  9993
2 10113  50.0000 330.0000 0000000   0.0000 240.0000  5.31014043    17
CTC1_L_00603012-05
1 10114U 22577GY  26075.70039352  .00000000  00000+0  00000-0 0  9998
2 10114  50.0000 330.0000 0000000   0.0000 276.0000  5.31014043    17
CTC1_L_00603012-06
1 10115U 22733KF  26075.70039352  .00000000  00000+0  00000-0 0  9993
2 10115  50.0000 330.0000 0000000   0.0000 312.0000  5.31014043    19
CTC1_L_00603012-07
1 10116U 26941JN  26075.70039352  .00000000  00000+0  00000-0 0  9999
2 10116  50.0000 330.0000 0000000   0.0000 348.0000  5.31014043    19
CTC1_L_00603012-08
1 10117U 25419WW  26075.70039352  .00000000  00000+0  00000-0 0  9999
2 10117  50.0000 330.0000 0000000   0.0000  24.0000  5.31014043    11
CTC1_L_00603012-09
1 10118U 22941WD  26075.70039352  .00000000  00000+0  00000-0 0  9997
2 10118  50.0000 330.0000 0000000   0.0000  60.0000  5.31014043    12
CTC1_L_00603012-10
1 10119U 22048HY  26075.70039352  .00000000  00000+0  00000-0 0  9996
2 10119  50.0000 330.0000 0000000   0.0000  96.0000  5.31014043    12
